ONEWEB-0131             
1 47277U 20100V   26156.52219574  .00000186  00000+0  48044-3 0  9992
2 47277  87.8938 352.9917 0001733  89.0953 271.0374 13.12444083263157
ONEWEB-0132             
1 47278U 20100W   26156.47476563  .00000069  00000+0  15692-3 0  9993
2 47278  87.8943 353.0025 0001715  85.7756 274.3568 13.12442230263041
ONEWEB-0133             
1 47279U 20100X   26156.49155764 -.00000478  00000+0 -13639-2 0  9997
2 47279  87.8953 352.9737 0001651  91.2803 268.8515 13.12443401263204
ONEWEB-0134             
1 47280U 20100Y   26156.46120779  .00000466  00000+0  12612-2 0  9999
2 47280  87.8953 352.9772 0001521  92.7757 267.3546 13.12443271263174
ONEWEB-0135             
1 47281U 20100Z   26156.50863963 -.00000236  00000+0 -69138-3 0  9997
2 47281  87.8940 352.9922 0001448  88.2600 271.8695 13.12444399263204
ONEWEB-0136             
1 47282U 20100AA  26156.45104343  .00000413  00000+0  11129-2 0  9993
2 47282  87.8951 352.9840 0001475  93.6139 266.5158 13.12444036263127
ONEWEB-0137             
1 47283U 20100AB  26156.48491936 -.00000298  00000+0 -86257-3 0  9992
2 47283  87.8954 352.9865 0001897  88.9575 271.1770 13.12442547263034
ONEWEB-0138             
1 47284U 20100AC  26156.46290730  .00000373  00000+0  10001-2 0  9995
2 47284  87.8948 352.9968 0001620  96.6573 263.4740 13.12442455263118
ONEWEB-0139             
1 47285U 20100AD  26156.50369499 -.00000307  00000+0 -88980-3 0  9991
2 47285  87.8949 352.9750 0001770  90.6836 269.4495 13.12444762263195
ONEWEB-0140             
1 47286U 20100AE  26156.45782269  .00000510  00000+0  13820-2 0  9994
2 47286  87.8950 352.9748 0001704  85.9493 274.1830 13.12442703263153
ONEWEB-0141             
1 47287U 20100AF  26156.50341980 -.00000375  00000+0 -10780-2 0  9995
2 47287  87.8950 352.9711 0002059  92.8331 267.3033 13.12444175263149
ONEWEB-0142             
1 47288U 20100AG  26156.49184766 -.00000398  00000+0 -11429-2 0  9997
2 47288  87.8944 352.9954 0001948 100.9785 259.1562 13.12441918263139
ONEWEB-0143             
1 47289U 20100AH  26156.50186251 -.00000386  00000+0 -11093-2 0  9995
2 47289  87.8949 352.9917 0001803  89.1366 270.9969 13.12443988263116
ONEWEB-0144             
1 47290U 20100AJ  26156.47308215  .00000703  00000+0  19189-2 0  9994
2 47290  87.8953 352.9709 0001444  99.3698 260.7594 13.12432478263038
ONEWEB-0145             
1 47291U 20100AK  26156.52050529  .00000211  00000+0  55222-3 0  9996
2 47291  87.8942 352.9904 0001781  93.0196 267.1136 13.12444667263230
ONEWEB-0146             
1 47292U 20100AL  26156.51711867  .00000016  00000+0  90710-5 0  9991
2 47292  87.8949 352.9823 0001832  78.3530 281.7804 13.12444162263147
ONEWEB-0147             
1 47293U 20100AM  26156.48322664 -.00000250  00000+0 -73028-3 0  9994
2 47293  87.8954 352.9708 0001627  89.1329 270.9986 13.12442719263039
ONEWEB-0115             
1 48042U 21025A   26156.44437100  .00000290  00000+0  75891-3 0  9994
2 48042  87.8945 322.5619 0001788  93.2848 266.8486 13.13469598252050
ONEWEB-0152             
1 48043U 21025B   26156.68644426  .00000336  00000+0  88528-3 0  9994
2 48043  87.8953 322.5103 0001750  89.3889 270.7441 13.13469625252043
ONEWEB-0153             
1 48044U 21025C   26156.43590257  .00000182  00000+0  46337-3 0  9991
2 48044  87.8947 322.5638 0001815  97.1954 262.9382 13.13470776252004
ONEWEB-0154             
1 48045U 21025D   26156.50869081  .00000162  00000+0  40967-3 0  9995
2 48045  87.8950 322.5474 0001703  91.6416 268.4908 13.13469703251973
ONEWEB-0116             
1 48046U 21025E   26156.69996666  .00000077  00000+0  17604-3 0  9993
2 48046  87.8955 322.5040 0001766  91.4611 268.6720 13.13469598252148
ONEWEB-0150             
1 48047U 21025F   26156.44775441  .00000329  00000+0  86596-3 0  9999
2 48047  87.8952 322.5522 0002026  96.7026 263.4334 13.13469473252000
ONEWEB-0107             
1 48048U 21025G   26156.44944855  .00000079  00000+0  18229-3 0  9997
2 48048  87.8964 322.5494 0001600 100.5117 259.6192 13.13469140251980
ONEWEB-0101             
1 48049U 21025H   26156.48837722 -.00000449  00000+0 -12643-2 0  9992
2 48049  87.8944 322.5560 0001648  98.3441 261.7875 13.13469473251968
ONEWEB-0113             
1 48050U 21025J   26156.51650758  .00000163  00000+0  40927-3 0  9998
2 48050  87.8952 322.4633 0001788  89.3589 270.7745 13.13894962252071
ONEWEB-0112             
1 48051U 21025K   26156.45452713  .00000252  00000+0  65603-3 0  9990
2 48051  87.8950 322.5444 0001647 103.8461 256.2851 13.13469229252055
ONEWEB-0156             
1 48052U 21025L   26156.69151986  .00000098  00000+0  23472-3 0  9991
2 48052  87.8962 322.5083 0001712  94.9490 265.1835 13.13468988252066
ONEWEB-0161             
1 48053U 21025M   26156.43759668  .00000225  00000+0  58176-3 0  9996
2 48053  87.8955 322.5603 0001826  97.4491 262.6845 13.13470429251966
ONEWEB-0158             
1 48054U 21025N   26156.70167530 -.00006366  00000+0 -17471-1 0  9993
2 48054  87.8947 322.5042 0001235  93.3842 266.7428 13.13502235252126
