OBJECT_NAME,OBJECT_ID,EPOCH,MEAN_MOTION,ECCENTRICITY,INCLINATION,RA_OF_ASC_NODE,ARG_OF_PERICENTER,MEAN_ANOMALY,EPHEMERIS_TYPE,CLASSIFICATION_TYPE,NORAD_CAT_ID,ELEMENT_SET_NO,REV_AT_EPOCH,BSTAR,MEAN_MOTION_DOT,MEAN_MOTION_DDOT
ONEWEB-0131,2020-100V,2026-06-05T12:31:57.711936,13.12444083,.0001733,87.8938,352.9917,89.0953,271.0374,0,U,47277,999,26315,.48044E-3,.186E-5,0
ONEWEB-0132,2020-100W,2026-06-05T11:23:39.750432,13.12442230,.0001715,87.8943,353.0025,85.7756,274.3568,0,U,47278,999,26304,.15692E-3,.69E-6,0
ONEWEB-0133,2020-100X,2026-06-05T11:47:50.580096,13.12443401,.0001651,87.8953,352.9737,91.2803,268.8515,0,U,47279,999,26320,-.13639E-2,-.478E-5,0
ONEWEB-0134,2020-100Y,2026-06-05T11:04:08.353056,13.12443271,.0001521,87.8953,352.9772,92.7757,267.3546,0,U,47280,999,26317,.12612E-2,.466E-5,0
ONEWEB-0135,2020-100Z,2026-06-05T12:12:26.464032,13.12444399,.0001448,87.8940,352.9922,88.2600,271.8695,0,U,47281,999,26320,-.69138E-3,-.236E-5,0
ONEWEB-0136,2020-100AA,2026-06-05T10:49:30.152352,13.12444036,.0001475,87.8951,352.9840,93.6139,266.5158,0,U,47282,999,26312,.11129E-2,.413E-5,0
ONEWEB-0137,2020-100AB,2026-06-05T11:38:17.032704,13.12442547,.0001897,87.8954,352.9865,88.9575,271.1770,0,U,47283,999,26303,-.86257E-3,-.298E-5,0
ONEWEB-0138,2020-100AC,2026-06-05T11:06:35.190720,13.12442455,.000162,87.8948,352.9968,96.6573,263.4740,0,U,47284,999,26311,.10001E-2,.373E-5,0
ONEWEB-0139,2020-100AD,2026-06-05T12:05:19.247136,13.12444762,.000177,87.8949,352.9750,90.6836,269.4495,0,U,47285,999,26319,-.8898E-3,-.307E-5,0
ONEWEB-0140,2020-100AE,2026-06-05T10:59:15.880416,13.12442703,.0001704,87.8950,352.9748,85.9493,274.1830,0,U,47286,999,26315,.1382E-2,.51E-5,0
ONEWEB-0141,2020-100AF,2026-06-05T12:04:55.470720,13.12444175,.0002059,87.8950,352.9711,92.8331,267.3033,0,U,47287,999,26314,-.1078E-2,-.375E-5,0
ONEWEB-0142,2020-100AG,2026-06-05T11:48:15.637824,13.12441918,.0001948,87.8944,352.9954,100.9785,259.1562,0,U,47288,999,26313,-.11429E-2,-.398E-5,0
ONEWEB-0143,2020-100AH,2026-06-05T12:02:40.920864,13.12443988,.0001803,87.8949,352.9917,89.1366,270.9969,0,U,47289,999,26311,-.11093E-2,-.386E-5,0
ONEWEB-0144,2020-100AJ,2026-06-05T11:21:14.297760,13.12432478,.0001444,87.8953,352.9709,99.3698,260.7594,0,U,47290,999,26303,.19189E-2,.703E-5,0
ONEWEB-0145,2020-100AK,2026-06-05T12:29:31.657056,13.12444667,.0001781,87.8942,352.9904,93.0196,267.1136,0,U,47291,999,26323,.55222E-3,.211E-5,0
ONEWEB-0146,2020-100AL,2026-06-05T12:24:39.053088,13.12444162,.0001832,87.8949,352.9823,78.3530,281.7804,0,U,47292,999,26314,.9071E-5,.16E-6,0
ONEWEB-0147,2020-100AM,2026-06-05T11:35:50.781696,13.12442719,.0001627,87.8954,352.9708,89.1329,270.9986,0,U,47293,999,26303,-.73028E-3,-.25E-5,0
ONEWEB-0115,2021-025A,2026-06-05T10:39:53.654400,13.13469598,.0001788,87.8945,322.5619,93.2848,266.8486,0,U,48042,999,25205,.75891E-3,.29E-5,0
ONEWEB-0152,2021-025B,2026-06-05T16:28:28.784064,13.13469625,.000175,87.8953,322.5103,89.3889,270.7441,0,U,48043,999,25204,.88528E-3,.336E-5,0
ONEWEB-0153,2021-025C,2026-06-05T10:27:41.982048,13.13470776,.0001815,87.8947,322.5638,97.1954,262.9382,0,U,48044,999,25200,.46337E-3,.182E-5,0
ONEWEB-0154,2021-025D,2026-06-05T12:12:30.885984,13.13469703,.0001703,87.8950,322.5474,91.6416,268.4908,0,U,48045,999,25197,.40967E-3,.162E-5,0
ONEWEB-0116,2021-025E,2026-06-05T16:47:57.119424,13.13469598,.0001766,87.8955,322.5040,91.4611,268.6720,0,U,48046,999,25214,.17604E-3,.77E-6,0
ONEWEB-0150,2021-025F,2026-06-05T10:44:45.981024,13.13469473,.0002026,87.8952,322.5522,96.7026,263.4334,0,U,48047,999,25200,.86596E-3,.329E-5,0
ONEWEB-0107,2021-025G,2026-06-05T10:47:12.354720,13.13469140,.00016,87.8964,322.5494,100.5117,259.6192,0,U,48048,999,25198,.18229E-3,.79E-6,0
ONEWEB-0101,2021-025H,2026-06-05T11:43:15.791808,13.13469473,.0001648,87.8944,322.5560,98.3441,261.7875,0,U,48049,999,25196,-.12643E-2,-.449E-5,0
ONEWEB-0113,2021-025J,2026-06-05T12:23:46.254912,13.13894962,.0001788,87.8952,322.4633,89.3589,270.7745,0,U,48050,999,25207,.40927E-3,.163E-5,0
ONEWEB-0112,2021-025K,2026-06-05T10:54:31.144032,13.13469229,.0001647,87.8950,322.5444,103.8461,256.2851,0,U,48051,999,25205,.65603E-3,.252E-5,0
ONEWEB-0156,2021-025L,2026-06-05T16:35:47.315904,13.13468988,.0001712,87.8962,322.5083,94.9490,265.1835,0,U,48052,999,25206,.23472E-3,.98E-6,0
ONEWEB-0161,2021-025M,2026-06-05T10:30:08.353152,13.13470429,.0001826,87.8955,322.5603,97.4491,262.6845,0,U,48053,999,25196,.58176E-3,.225E-5,0
ONEWEB-0158,2021-025N,2026-06-05T16:50:24.745920,13.13502235,.0001235,87.8947,322.5042,93.3842,266.7428,0,U,48054,999,25212,-.17471E-1,-.6366E-4,0
